BEIDOU 3 (C01)          
1 36287U 10001A   22095.91505932 -.00000282  00000+0  00000+0 0  9991
2 36287   1.9573  49.3979 0003325  12.2266 242.3609  1.00274997 44784
BEIDOU 5 (C06)          
1 36828U 10036A   22096.17268279 -.00000121  00000+0  00000+0 0  9991
2 36828  54.1905 176.8919 0027782 185.6023   2.5341  1.00267062 42853
BEIDOU 6 (C04)          
1 37210U 10057A   22095.97929409 -.00000114  00000+0  00000+0 0  9998
2 37210   0.7413  39.1041 0002331 200.9261 106.7386  1.00271642 41905
BEIDOU 7 (C07)          
1 37256U 10068A   22095.54785646 -.00000187  00000+0  00000+0 0  9996
2 37256  50.3418 290.5136 0018473 182.2537  26.9616  1.00272650 41416
BEIDOU 8 (C08)          
1 37384U 11013A   22096.25855887 -.00000175  00000+0  00000+0 0  9990
2 37384  60.1929  54.9710 0018605 194.7361 146.7134  1.00274750 40298
BEIDOU 9 (C09)          
1 37763U 11038A   22096.17456358 -.00000064  00000+0  00000+0 0  9996
2 37763  54.4723 179.3733 0095120 226.8562 303.1592  1.00293332 39271
BEIDOU 10 (C10)         
1 37948U 11073A   22096.24661559 -.00000135  00000+0  00000+0 0  9998
2 37948  50.4548 290.1399 0077282 217.4723 231.3500  1.00268936 38037
BEIDOU 11 (C05)         
1 38091U 12008A   22096.22063244  .00000056  00000+0  00000+0 0  9993
2 38091   1.4057  65.4695 0014759 321.9701 305.1364  1.00270699 37101
BEIDOU 12 (C11)         
1 38250U 12018A   22095.41657198 -.00000111  00000+0  00000+0 0  9991
2 38250  56.7129 355.9718 0021768 257.9256 304.6567  1.86234346 67728
BEIDOU 13 (C12)         
1 38251U 12018B   22095.89037115 -.00000110  00000+0  00000+0 0  9994
2 38251  56.6310 355.2862 0012912 264.9380 299.5585  1.86234211 67734
BEIDOU 15 (C14)         
1 38775U 12050B   22095.39535439  .00000010  00000+0  00000+0 0  9996
2 38775  55.3568 114.1428 0014998 318.3376 110.8326  1.86231280 65101
BEIDOU 16 (C02)         
1 38953U 12059A   22095.83205877 -.00000177  00000+0  00000+0 0  9997
2 38953   1.8092  84.5023 0013174 291.6839 201.4973  1.00270404 34535
BEIDOU 17 (C31)         
1 40549U 15019A   22095.53871573 -.00000151  00000+0  00000+0 0  9991
2 40549  52.0079 313.5994 0035562 188.3613 339.4474  1.00257884 25705
BEIDOU 18 (C57)         
1 40748U 15037A   22095.66709329 -.00000111  00000+0  00000+0 0  9991
2 40748  55.8856 354.2037 0005660  11.9272 312.3963  1.86233218 45555
BEIDOU 19 (C58)         
1 40749U 15037B   22095.22066188 -.00000112  00000+0  00000+0 0  9994
2 40749  55.8887 354.2091 0006474 336.8345 183.0066  1.86232138 45540
BEIDOU 20 (C18)         
1 40938U 15053A   22095.46993814 -.00000117  00000+0  00000+0 0  9998
2 40938  51.6140 276.7055 0044716 192.2880 349.0886  1.00263243 23977
BEIDOU IGSO-6 (C13)     
1 41434U 16021A   22095.66517478 -.00000134  00000+0  00000+0 0  9995
2 41434  57.9970  53.5840 0043094 220.0204 252.0968  1.00256820 22101
BEIDOU-2 G7 (C03)       
1 41586U 16037A   22096.20406587 -.00000355  00000+0  00000+0 0  9994
2 41586   1.8175  68.6647 0009139 359.2532 310.5055  1.00268015 21416
BEIDOU-3 M1 (C19)       
1 43001U 17069A   22095.18968012  .00000010  00000+0  00000+0 0  9993
2 43001  55.5105 114.1398 0012203 289.5530 157.9224  1.86231571 30038
BEIDOU-3 M2 (C20)       
1 43002U 17069B   22095.65002426  .00000011  00000+0  00000+0 0  9995
2 43002  55.5100 114.1609 0010071 305.8222 133.4190  1.86231347 30032
BEIDOU-3 M3 (C27)       
1 43107U 18003A   22096.09307150 -.00000112  00000+0  00000+0 0  9994
2 43107  55.3347 355.1394 0005545  42.8618 139.4623  1.86232399 28801
BEIDOU-3 M4 (C28)       
1 43108U 18003B   22096.02608799 -.00000112  00000+0  00000+0 0  9991
2 43108  55.3278 355.1300 0002750 278.5566 263.1554  1.86230844 28808
BEIDOU-3 M5 (C21)       
1 43207U 18018A   22095.12694092  .00000010  00000+0  00000+0 0  9994
2 43207  55.4700 114.2595 0007166 321.2903  38.7029  1.86231501 28170
BEIDOU-3 M6 (C22)       
1 43208U 18018B   22095.19356796  .00000010  00000+0  00000+0 0  9998
2 43208  55.4692 114.2616 0010179 297.2661  62.6738  1.86231627 28178
BEIDOU-3 M7 (C29)       
1 43245U 18029A   22095.69103660 -.00000111  00000+0  00000+0 0  9999
2 43245  55.2518 352.9261 0001441   3.8101 179.3420  1.86232508 27333
BEIDOU-3 M8 (C30)       
1 43246U 18029B   22096.15979338 -.00000110  00000+0  10000-3 0  9999
2 43246  55.2490 352.9401 0005327 359.6472 184.2557  1.86232678 27333
BEIDOU IGSO-7 (C16)     
1 43539U 18057A   22095.63868951 -.00000121  00000+0  00000+0 0  9992
2 43539  55.0731 176.3508 0046959 224.9503 133.9556  1.00280273 13778
BEIDOU-3 M9 (C23)       
1 43581U 18062A   22095.59150869  .00000012  00000+0  00000+0 0  9990
2 43581  54.2997 234.5775 0001885 300.4911  73.2215  1.86231814 25070
BEIDOU-3 M10 (C24)      
1 43582U 18062B   22095.45973179  .00000011  00000+0  00000+0 0  9992
2 43582  54.3002 234.5715 0005699  22.7124 354.3691  1.86232034 25076
BEIDOU-3 M11 (C25)      
1 43602U 18067A   22095.39119637  .00000011  00000+0  00000+0 0  9994
2 43602  54.3806 233.1819 0007321  14.6519 358.0098  1.86231581 24564
BEIDOU-3 M12 (C26)      
1 43603U 18067B   22095.52689712  .00000012  00000+0  00000+0 0  9997
2 43603  54.3777 233.1442 0004362   9.2306   4.8035  1.86231566 24582
BEIDOU-3 M13 (C32)      
1 43622U 18072A   22095.59493508  .00000011  00000+0  00000+0 0  9996
2 43622  55.4356 113.8005 0008770 284.5808 164.5603  1.86231533 24094
BEIDOU-3 M14 (C33)      
1 43623U 18072B   22095.86299497  .00000011  00000+0  00000+0 0  9998
2 43623  55.4382 113.7838 0006567 302.3153  56.7803  1.86231499 24096
BEIDOU-3 M15 (C34)      
1 43647U 18078A   22094.68573492 -.00000113  00000+0  10000-3 0  9998
2 43647  55.1464 353.1246 0007713   3.7331 181.5249  1.86232562 23583
BEIDOU-3 M16 (C35)      
1 43648U 18078B   22095.89979816 -.00000111  00000+0  00000+0 0  9996
2 43648  55.1427 353.0906 0005725  10.5129 176.6526  1.86232166 23625
BEIDOU-3 G1 (C59)       
1 43683U 18085A   22095.84322271 -.00000281  00000+0  00000+0 0  9993
2 43683   0.8433 178.9365 0002608 323.2643 135.4469  1.00268002 12680
BEIDOU-3 M17 (C36)      
1 43706U 18093A   22095.88293422  .00000013  00000+0  00000+0 0  9999
2 43706  54.3813 234.4470 0007657 276.9080 157.0781  1.86232052 22975
BEIDOU-3 M18 (C37)      
1 43707U 18093B   22096.17060843  .00000013  00000+0  00000+0 0  9992
2 43707  54.3823 234.4283 0006616 312.2440  45.7621  1.86232082 22976
BEIDOU-3 IGSO-1 (C38)   
1 44204U 19023A   22095.65403931 -.00000209  00000+0  00000+0 0  9998
2 44204  56.4554  53.7514 0020002 205.3936 289.4867  1.00279757 10982
BEIDOU-2 G8             
1 44231U 19027A   22095.91593149 -.00000249  00000+0  00000+0 0  9996
2 44231   0.6918  72.6021 0004293 140.5856  95.2085  1.00275936 10693
BEIDOU-3 IGSO-2 (C39)   
1 44337U 19035A   22095.61876618 -.00000124  00000+0  00000+0 0  9996
2 44337  55.1123 172.3748 0022998 193.7065 169.7620  1.00275267 10320
BEIDOU-3 M23 (C45)      
1 44542U 19061A   22095.70796318  .00000013  00000+0  00000+0 0  9997
2 44542  54.6075 234.5815 0007564 347.5781  12.3657  1.86231272 17232
BEIDOU-3 M24 (C46)      
1 44543U 19061B   22095.81383175  .00000013  00000+0  00000+0 0  9993
2 44543  54.6064 234.5466 0004804 347.7156 354.4185  1.86231618 17224
BEIDOU-3 IGSO-3         
1 44709U 19073A   22095.88916788 -.00000163  00000+0  00000+0 0  9996
2 44709  57.3807 297.1311 0021113 172.7137 163.9378  1.00277977  9079
BEIDOU-3 M21            
1 44793U 19078A   22096.13080436 -.00000111  00000+0  10000-3 0  9993
2 44793  54.9949 353.1076 0007584   7.5700  20.5533  1.86232108 16104
BEIDOU-3 M22            
1 44794U 19078B   22095.60921834 -.00000112  00000+0  00000+0 0  9997
2 44794  54.9696 353.1176 0005510   3.3634 306.5888  1.86232627 16085
BEIDOU-3 M19            
1 44864U 19090A   22095.92045817  .00000012  00000+0  00000+0 0  9990
2 44864  55.3709 114.0049 0018714 270.1433  82.9863  1.86231816 15678
BEIDOU-3 M20            
1 44865U 19090B   22095.87698543  .00000011  00000+0  00000+0 0  9994
2 44865  55.3730 114.0381 0017081 283.1227 130.7398  1.86231778 15653
BEIDOU-3 G2             
1 45344U 20017A   22096.11836478 -.00000144  00000+0  00000+0 0  9995
2 45344   2.1197 348.5169 0003071  79.8482 248.6563  1.00272642  7899
BEIDOU-3 G3             
1 45807U 20040A   22095.98157037 -.00000357  00000+0  00000+0 0  9992
2 45807   1.6081 301.4365 0007176 345.1171  11.5648  1.00268002  6704
